start=new Date('2021-09-25T00:00:00.000Z').valueOf();
sats=[{"REV_AT_EPOCH":"9123","EPOCH":"2021-09-24T16:21:28.883520","CENTER_NAME":"EARTH","TLE_LINE1":"1 45045U 20006B   21267.68158430  .00001426  00000-0  11460-3 0  9997","PERIOD":"95.592","GP_ID":"185426649","BSTAR":"0.00011460000000","TIME_SYSTEM":"UTC","SITE":"AFETR","RCS_SIZE":"LARGE","MEAN_MOTION_DDOT":"0.0000000000000","INCLINATION":"53.0553","OBJECT_ID":"2020-006B","TLE_LINE2":"2 45045  53.0553  30.5464 0001648  92.2401 267.8777 15.06404292 91232","ECCENTRICITY":"0.00016480","PERIAPSIS":"546.059","SEMIMAJOR_AXIS":"6925.335","OBJECT_TYPE":"PAYLOAD","CLASSIFICATION_TYPE":"U","ARG_OF_PERICENTER":"92.2401","APOAPSIS":"548.342","NORAD_CAT_ID":"45045","EPHEMERIS_TYPE":"0","COUNTRY_CODE":"US","FILE":"3126800","MEAN_ANOMALY":"267.8777","MEAN_MOTION":"15.06404292","DECAY_DATE":null,"ELEMENT_SET_NO":"999","MEAN_ELEMENT_THEORY":"SGP4","OBJECT_NAME":"STARLINK-1120","MEAN_MOTION_DOT":"0.00001426","LAUNCH_DATE":"2020-01-29","REF_FRAME":"TEME","RA_OF_ASC_NODE":"30.5464"},{"CLASSIFICATION_TYPE":"U","OBJECT_TYPE":"PAYLOAD","ARG_OF_PERICENTER":"101.7532","APOAPSIS":"543.741","EPHEMERIS_TYPE":"0","NORAD_CAT_ID":"45046","FILE":"3126800","COUNTRY_CODE":"US","MEAN_ANOMALY":"258.3616","MEAN_MOTION":"15.07855044","ELEMENT_SET_NO":"999","DECAY_DATE":null,"MEAN_ELEMENT_THEORY":"SGP4","OBJECT_NAME":"STARLINK-1129","MEAN_MOTION_DOT":"0.00006507","LAUNCH_DATE":"2020-01-29","REF_FRAME":"TEME","RA_OF_ASC_NODE":"26.9690","REV_AT_EPOCH":"9127","CENTER_NAME":"EARTH","EPOCH":"2021-09-24T19:51:48.225600","TLE_LINE1":"1 45046U 20006C   21267.82764150  .00006507  00000-0  43796-3 0  9998","PERIOD":"95.500","GP_ID":"185426899","BSTAR":"0.00043796000000","TIME_SYSTEM":"UTC","SITE":"AFETR","RCS_SIZE":"LARGE","INCLINATION":"52.9999","MEAN_MOTION_DDOT":"0.0000000000000","OBJECT_ID":"2020-006C","TLE_LINE2":"2 45046  52.9999  26.9690 0001421 101.7532 258.3616 15.07855044 91272","ECCENTRICITY":"0.00014210","SEMIMAJOR_AXIS":"6920.893","PERIAPSIS":"541.774"},{"APOAPSIS":"548.026","ARG_OF_PERICENTER":"93.1287","OBJECT_TYPE":"PAYLOAD","CLASSIFICATION_TYPE":"U","FILE":"3126800","COUNTRY_CODE":"US","MEAN_ANOMALY":"266.9834","NORAD_CAT_ID":"45047","EPHEMERIS_TYPE":"0","OBJECT_NAME":"STARLINK-1131","MEAN_ELEMENT_THEORY":"SGP4","DECAY_DATE":null,"ELEMENT_SET_NO":"999","MEAN_MOTION":"15.06395146","RA_OF_ASC_NODE":"29.9414","REF_FRAME":"TEME","LAUNCH_DATE":"2020-01-29","MEAN_MOTION_DOT":"-0.00000960","REV_AT_EPOCH":"9125","PERIOD":"95.592","TLE_LINE1":"1 45047U 20006D   21267.81796183 -.00000960  00000-0 -45555-4 0  9994","CENTER_NAME":"EARTH","EPOCH":"2021-09-24T19:37:51.902112","OBJECT_ID":"2020-006D","MEAN_MOTION_DDOT":"0.0000000000000","INCLINATION":"53.0555","SITE":"AFETR","TIME_SYSTEM":"UTC","RCS_SIZE":"LARGE","BSTAR":"-0.00004555500000","GP_ID":"185427648","PERIAPSIS":"546.431","SEMIMAJOR_AXIS":"6925.363","ECCENTRICITY":"0.00011520","TLE_LINE2":"2 45047  53.0555  29.9414 0001152  93.1287 266.9834 15.06395146 91258"},{"SEMIMAJOR_AXIS":"6925.342","PERIAPSIS":"546.229","ECCENTRICITY":"0.00014120","TLE_LINE2":"2 45048  53.0575  29.9015 0001412  99.0523 261.0625 15.06402253 91257","OBJECT_ID":"2020-006E","MEAN_MOTION_DDOT":"0.0000000000000","INCLINATION":"53.0575","TIME_SYSTEM":"UTC","SITE":"AFETR","RCS_SIZE":"LARGE","BSTAR":"0.00032223000000","GP_ID":"185428400","PERIOD":"95.592","TLE_LINE1":"1 45048U 20006E   21267.82534144  .00004522  00000-0  32223-3 0  9996","EPOCH":"2021-09-24T19:48:29.500416","CENTER_NAME":"EARTH","REV_AT_EPOCH":"9125","RA_OF_ASC_NODE":"29.9015","REF_FRAME":"TEME","LAUNCH_DATE":"2020-01-29","MEAN_MOTION_DOT":"0.00004522","OBJECT_NAME":"STARLINK-1134","MEAN_ELEMENT_THEORY":"SGP4","ELEMENT_SET_NO":"999","DECAY_DATE":null,"MEAN_MOTION":"15.06402253","MEAN_ANOMALY":"261.0625","FILE":"3126800","COUNTRY_CODE":"US","EPHEMERIS_TYPE":"0","NORAD_CAT_ID":"45048","APOAPSIS":"548.185","ARG_OF_PERICENTER":"99.0523","OBJECT_TYPE":"PAYLOAD","CLASSIFICATION_TYPE":"U"},{"OBJECT_ID":"2020-006F","MEAN_MOTION_DDOT":"0.0000000000000","INCLINATION":"53.0562","BSTAR":"0.00003591500000","GP_ID":"185427149","SITE":"AFETR","RCS_SIZE":"LARGE","TIME_SYSTEM":"UTC","ECCENTRICITY":"0.00013790","SEMIMAJOR_AXIS":"6925.335","PERIAPSIS":"546.245","TLE_LINE2":"2 45049  53.0562  29.8866 0001379 101.8021 258.3123 15.06404340 91255","REV_AT_EPOCH":"9125","PERIOD":"95.592","TLE_LINE1":"1 45049U 20006F   21267.82901154  .00000254  00000-0  35915-4 0  9996","CENTER_NAME":"EARTH","EPOCH":"2021-09-24T19:53:46.597056","OBJECT_NAME":"STARLINK-1135","MEAN_MOTION":"15.06404340","MEAN_ELEMENT_THEORY":"SGP4","ELEMENT_SET_NO":"999","DECAY_DATE":null,"REF_FRAME":"TEME","RA_OF_ASC_NODE":"29.8866","MEAN_MOTION_DOT":"0.00000254","LAUNCH_DATE":"2020-01-29","APOAPSIS":"548.155","OBJECT_TYPE":"PAYLOAD","CLASSIFICATION_TYPE":"U","ARG_OF_PERICENTER":"101.8021","FILE":"3126800","COUNTRY_CODE":"US","MEAN_ANOMALY":"258.3123","EPHEMERIS_TYPE":"0","NORAD_CAT_ID":"45049"},{"MEAN_MOTION":"15.06413293","MEAN_ELEMENT_THEORY":"SGP4","ELEMENT_SET_NO":"999","DECAY_DATE":null,"OBJECT_NAME":"STARLINK-1140","MEAN_MOTION_DOT":"0.00001959","LAUNCH_DATE":"2020-01-29","REF_FRAME":"TEME","RA_OF_ASC_NODE":"30.7549","OBJECT_TYPE":"PAYLOAD","CLASSIFICATION_TYPE":"U","ARG_OF_PERICENTER":"86.5814","APOAPSIS":"548.225","EPHEMERIS_TYPE":"0","NORAD_CAT_ID":"45050","FILE":"3126800","MEAN_ANOMALY":"273.5348","COUNTRY_CODE":"US","BSTAR":"0.00015032000000","GP_ID":"185427399","RCS_SIZE":"LARGE","SITE":"AFETR","TIME_SYSTEM":"UTC","OBJECT_ID":"2020-006G","INCLINATION":"53.0548","MEAN_MOTION_DDOT":"0.0000000000000","TLE_LINE2":"2 45050  53.0548  30.7549 0001519  86.5814 273.5348 15.06413293 91227","ECCENTRICITY":"0.00015190","SEMIMAJOR_AXIS":"6925.308","PERIAPSIS":"546.121","REV_AT_EPOCH":"9122","CENTER_NAME":"EARTH","EPOCH":"2021-09-24T15:17:45.817440","PERIOD":"95.591","TLE_LINE1":"1 45050U 20006G   21267.63733585  .00001959  00000-0  15032-3 0  9998"},{"PERIOD":"95.592","TLE_LINE1":"1 45051U 20006H   21267.83271321 -.00000071  00000-0  14114-4 0  9992","CENTER_NAME":"EARTH","EPOCH":"2021-09-24T19:59:06.421344","REV_AT_EPOCH":"9125","SEMIMAJOR_AXIS":"6925.338","PERIAPSIS":"546.086","ECCENTRICITY":"0.00016130","TLE_LINE2":"2 45051  53.0553  29.8648 0001613 101.2241 258.8929 15.06403461 91257","OBJECT_ID":"2020-006H","INCLINATION":"53.0553","MEAN_MOTION_DDOT":"0.0000000000000","SITE":"AFETR","TIME_SYSTEM":"UTC","RCS_SIZE":"LARGE","BSTAR":"0.00001411400000","GP_ID":"185428148","FILE":"3126800","COUNTRY_CODE":"US","MEAN_ANOMALY":"258.8929","NORAD_CAT_ID":"45051","EPHEMERIS_TYPE":"0","APOAPSIS":"548.320","ARG_OF_PERICENTER":"101.2241","CLASSIFICATION_TYPE":"U","OBJECT_TYPE":"PAYLOAD","RA_OF_ASC_NODE":"29.8648","REF_FRAME":"TEME","LAUNCH_DATE":"2020-01-29","MEAN_MOTION_DOT":"-0.00000071","OBJECT_NAME":"STARLINK-1141","MEAN_ELEMENT_THEORY":"SGP4","DECAY_DATE":null,"ELEMENT_SET_NO":"999","MEAN_MOTION":"15.06403461"},{"TLE_LINE2":"2 45052  53.0550  29.8277 0001442  94.2631 265.8523 15.06391448 91256","ECCENTRICITY":"0.00014420","SEMIMAJOR_AXIS":"6925.375","PERIAPSIS":"546.241","BSTAR":"-0.00012771000000","GP_ID":"185427901","RCS_SIZE":"LARGE","SITE":"AFETR","TIME_SYSTEM":"UTC","OBJECT_ID":"2020-006J","MEAN_MOTION_DDOT":"0.0000000000000","INCLINATION":"53.0550","CENTER_NAME":"EARTH","EPOCH":"2021-09-24T20:15:01.307232","PERIOD":"95.593","TLE_LINE1":"1 45052U 20006J   21267.84376513 -.00002183  00000-0 -12771-3 0  9996","REV_AT_EPOCH":"9125","MEAN_MOTION_DOT":"-0.00002183","LAUNCH_DATE":"2020-01-29","REF_FRAME":"TEME","RA_OF_ASC_NODE":"29.8277","MEAN_MOTION":"15.06391448","MEAN_ELEMENT_THEORY":"SGP4","DECAY_DATE":null,"ELEMENT_SET_NO":"999","OBJECT_NAME":"STARLINK-1148","EPHEMERIS_TYPE":"0","NORAD_CAT_ID":"45052","MEAN_ANOMALY":"265.8523","FILE":"3126800","COUNTRY_CODE":"US","OBJECT_TYPE":"PAYLOAD","CLASSIFICATION_TYPE":"U","ARG_OF_PERICENTER":"94.2631","APOAPSIS":"548.238"},{"OBJECT_NAME":"STARLINK-1155","MEAN_MOTION":"15.07004314","MEAN_ELEMENT_THEORY":"SGP4","DECAY_DATE":null,"ELEMENT_SET_NO":"999","REF_FRAME":"TEME","RA_OF_ASC_NODE":"28.6456","MEAN_MOTION_DOT":"0.00006465","LAUNCH_DATE":"2020-01-29","APOAPSIS":"547.156","CLASSIFICATION_TYPE":"U","OBJECT_TYPE":"PAYLOAD","ARG_OF_PERICENTER":"105.2599","FILE":"3126800","COUNTRY_CODE":"US","MEAN_ANOMALY":"254.8677","NORAD_CAT_ID":"45053","EPHEMERIS_TYPE":"0","OBJECT_ID":"2020-006K","MEAN_MOTION_DDOT":"0.0000000000000","INCLINATION":"53.0018","BSTAR":"0.00044531000000","GP_ID":"185426650","RCS_SIZE":"LARGE","SITE":"AFETR","TIME_SYSTEM":"UTC","ECCENTRICITY":"0.00025910","SEMIMAJOR_AXIS":"6923.497","PERIAPSIS":"543.568","TLE_LINE2":"2 45053  53.0018  28.6456 0002591 105.2599 254.8677 15.07004314 91256","REV_AT_EPOCH":"9125","PERIOD":"95.554","TLE_LINE1":"1 45053U 20006K   21267.81957492  .00006465  00000-0  44531-3 0  9999","EPOCH":"2021-09-24T19:40:11.273088","CENTER_NAME":"EARTH"},{"SEMIMAJOR_AXIS":"6925.390","PERIAPSIS":"546.335","ECCENTRICITY":"0.00013280","TLE_LINE2":"2 45054  53.0567  29.8283 0001328  89.7745 270.3396 15.06386496 91257","OBJECT_ID":"2020-006L","MEAN_MOTION_DDOT":"0.0000000000000","INCLINATION":"53.0567","TIME_SYSTEM":"UTC","SITE":"AFETR","RCS_SIZE":"LARGE","BSTAR":"-0.00000734500000","GP_ID":"185426900","PERIOD":"95.593","TLE_LINE1":"1 45054U 20006L   21267.84008070 -.00000391  00000-0 -73450-5 0  9990","CENTER_NAME":"EARTH","EPOCH":"2021-09-24T20:09:42.972480","REV_AT_EPOCH":"9125","RA_OF_ASC_NODE":"29.8283","REF_FRAME":"TEME","LAUNCH_DATE":"2020-01-29","MEAN_MOTION_DOT":"-0.00000391","OBJECT_NAME":"STARLINK-1156","MEAN_ELEMENT_THEORY":"SGP4","ELEMENT_SET_NO":"999","DECAY_DATE":null,"MEAN_MOTION":"15.06386496","COUNTRY_CODE":"US","FILE":"3126800","MEAN_ANOMALY":"270.3396","NORAD_CAT_ID":"45054","EPHEMERIS_TYPE":"0","APOAPSIS":"548.175","ARG_OF_PERICENTER":"89.7745","CLASSIFICATION_TYPE":"U","OBJECT_TYPE":"PAYLOAD"}];
